{"type": "FeatureCollection", "features": [ {"type": "Feature", "properties": {"norad_id": 34546, "name": "COSMOS 2251 DEB", "group": "cosmos-2251-debris", "lat": 24.688252770489573, "lon": 65.83206109747617, "alt_km": 755.1638103628702, "timestamp": "2025-12-10T11:33:53.778528+00:00", "meta": {"OBJECT_NAME": "COSMOS 2251 DEB", "OBJECT_ID": "1993-036UG", "EPOCH": "2025-12-10T04:54:45.386208", "MEAN_MOTION": 14.45393149, "ECCENTRICITY": 0.0021891, "INCLINATION": 74.0311, "RA_OF_ASC_NODE": 253.9126, "ARG_OF_PERICENTER": 327.9276, "MEAN_ANOMALY": 184.55, "EPHEMERIS_TYPE": 0, "CLASSIFICATION_TYPE": "U", "NORAD_CAT_ID": 34546, "ELEMENT_SET_NO": 999, "REV_AT_EPOCH": 87989, "BSTAR": 0.00095753, "MEAN_MOTION_DOT": 3.353e-05, "MEAN_MOTION_DDOT": 0}, "tle": {"line1": "1 34546U 93036UG  25344.20469197  .00003353  00000+0  95753-3 0  9994", "line2": "2 34546  74.0311 253.9126 0021891 327.9276 184.5500 14.45393149879892"}}, "geometry": {"type": "Point", "coordinates": [65.83206109747617, 24.688252770489573]}}, {"type": "Feature", "properties": {"norad_id": 34547, "name": "COSMOS 2251 DEB", "group": "cosmos-2251-debris", "lat": 52.61543601217438, "lon": -96.8893720835939, "alt_km": 642.4828969632508, "timestamp": "2025-12-10T11:33:53.778538+00:00", "meta": {"OBJECT_NAME": "COSMOS 2251 DEB", "OBJECT_ID": "1993-036UH", "EPOCH": "2025-12-09T18:41:36.261024", "MEAN_MOTION": 14.72220503, "ECCENTRICITY": 0.0017825, "INCLINATION": 74.0304, "RA_OF_ASC_NODE": 106.4875, "ARG_OF_PERICENTER": 186.4351, "MEAN_ANOMALY": 173.6595, "EPHEMERIS_TYPE": 0, "CLASSIFICATION_TYPE": "U", "NORAD_CAT_ID": 34547, "ELEMENT_SET_NO": 999, "REV_AT_EPOCH": 88478, "BSTAR": 0.0032348, "MEAN_MOTION_DOT": 0.00020492, "MEAN_MOTION_DDOT": 0}, "tle": {"line1": "1 34547U 93036UH  25343.77889191  .00020492  00000+0  32348-2 0  9999", "line2": "2 34547  74.0304 106.4875 0017825 186.4351 173.6595 14.72220503884782"}}, "geometry": {"type": "Point", "coordinates": [-96.8893720835939, 52.61543601217438]}}, {"type": "Feature", "properties": {"norad_id": 34553, "name": "COSMOS 2251 DEB", "group": "cosmos-2251-debris", "lat": 38.86618871205313, "lon": 2.8381166200739067, "alt_km": 707.0014209148603, "timestamp": "2025-12-10T11:33:53.778548+00:00", "meta": {"OBJECT_NAME": "COSMOS 2251 DEB", "OBJECT_ID": "1993-036UP", "EPOCH": "2025-12-10T01:37:10.285824", "MEAN_MOTION": 14.57681637, "ECCENTRICITY": 0.0019433, "INCLINATION": 74.0245, "RA_OF_ASC_NODE": 196.9747, "ARG_OF_PERICENTER": 274.5627, "MEAN_ANOMALY": 211.0651, "EPHEMERIS_TYPE": 0, "CLASSIFICATION_TYPE": "U", "NORAD_CAT_ID": 34553, "ELEMENT_SET_NO": 999, "REV_AT_EPOCH": 88057, "BSTAR": 0.0014772, "MEAN_MOTION_DOT": 6.735e-05, "MEAN_MOTION_DDOT": 0}, "tle": {"line1": "1 34553U 93036UP  25344.06748016  .00006735  00000+0  14772-2 0  9994", "line2": "2 34553  74.0245 196.9747 0019433 274.5627 211.0651 14.57681637880572"}}, "geometry": {"type": "Point", "coordinates": [2.8381166200739067, 38.86618871205313]}}, {"type": "Feature", "properties": {"norad_id": 34554, "name": "COSMOS 2251 DEB", "group": "cosmos-2251-debris", "lat": 43.679225295133854, "lon": -40.9896800012335, "alt_km": 748.7931463507166, "timestamp": "2025-12-10T11:33:53.778557+00:00", "meta": {"OBJECT_NAME": "COSMOS 2251 DEB", "OBJECT_ID": "1993-036UQ", "EPOCH": "2025-12-09T16:08:21.908256", "MEAN_MOTION": 14.37929055, "ECCENTRICITY": 0.0022854, "INCLINATION": 74.0384, "RA_OF_ASC_NODE": 304.639, "ARG_OF_PERICENTER": 7.6898, "MEAN_ANOMALY": 169.941, "EPHEMERIS_TYPE": 0, "CLASSIFICATION_TYPE": "U", "NORAD_CAT_ID": 34554, "ELEMENT_SET_NO": 999, "REV_AT_EPOCH": 87711, "BSTAR": 0.00062978, "MEAN_MOTION_DOT": 1.882e-05, "MEAN_MOTION_DDOT": 0}, "tle": {"line1": "1 34554U 93036UQ  25343.67247579  .00001882  00000+0  62978-3 0  9999", "line2": "2 34554  74.0384 304.6390 0022854   7.6898 169.9410 14.37929055877112"}}, "geometry": {"type": "Point", "coordinates": [-40.9896800012335, 43.679225295133854]}}, {"type": "Feature", "properties": {"norad_id": 34556, "name": "COSMOS 2251 DEB", "group": "cosmos-2251-debris", "lat": -57.347950420160096, "lon": -24.13630666479264, "alt_km": 639.8611746983561, "timestamp": "2025-12-10T11:33:53.778568+00:00", "meta": {"OBJECT_NAME": "COSMOS 2251 DEB", "OBJECT_ID": "1993-036US", "EPOCH": "2025-12-09T16:40:05.568960", "MEAN_MOTION": 14.77638766, "ECCENTRICITY": 0.0008183, "INCLINATION": 74.0161, "RA_OF_ASC_NODE": 130.8394, "ARG_OF_PERICENTER": 190.7064, "MEAN_ANOMALY": 183.6129, "EPHEMERIS_TYPE": 0, "CLASSIFICATION_TYPE": "U", "NORAD_CAT_ID": 34556, "ELEMENT_SET_NO": 999, "REV_AT_EPOCH": 88284, "BSTAR": 0.0037578, "MEAN_MOTION_DOT": 0.0002698, "MEAN_MOTION_DDOT": 0}, "tle": {"line1": "1 34556U 93036US  25343.69450890  .00026980  00000+0  37578-2 0  9998", "line2": "2 34556  74.0161 130.8394 0008183 190.7064 183.6129 14.77638766882844"}}, "geometry": {"type": "Point", "coordinates": [-24.13630666479264, -57.347950420160096]}}, {"type": "Feature", "properties": {"norad_id": 34560, "name": "COSMOS 2251 DEB", "group": "cosmos-2251-debris", "lat": -0.3771629960950025, "lon": -33.36237654794724, "alt_km": 650.2552692612799, "timestamp": "2025-12-10T11:33:53.778578+00:00", "meta": {"OBJECT_NAME": "COSMOS 2251 DEB", "OBJECT_ID": "1993-036UW", "EPOCH": "2025-12-10T05:00:42.257088", "MEAN_MOTION": 14.72020957, "ECCENTRICITY": 0.0014855, "INCLINATION": 74.0169, "RA_OF_ASC_NODE": 147.061, "ARG_OF_PERICENTER": 228.6066, "MEAN_ANOMALY": 305.4222, "EPHEMERIS_TYPE": 0, "CLASSIFICATION_TYPE": "U", "NORAD_CAT_ID": 34560, "ELEMENT_SET_NO": 999, "REV_AT_EPOCH": 88214, "BSTAR": 0.0032412, "MEAN_MOTION_DOT": 0.00020423, "MEAN_MOTION_DDOT": 0}, "tle": {"line1": "1 34560U 93036UW  25344.20882242  .00020423  00000+0  32412-2 0  9999", "line2": "2 34560  74.0169 147.0610 0014855 228.6066 305.4222 14.72020957882147"}}, "geometry": {"type": "Point", "coordinates": [-33.36237654794724, -0.3771629960950025]}}, {"type": "Feature", "properties": {"norad_id": 34563, "name": "COSMOS 2251 DEB", "group": "cosmos-2251-debris", "lat": 25.644442039956257, "lon": 20.02609732413992, "alt_km": 744.3446515690957, "timestamp": "2025-12-10T11:33:53.778587+00:00", "meta": {"OBJECT_NAME": "COSMOS 2251 DEB", "OBJECT_ID": "1993-036UZ", "EPOCH": "2025-12-10T01:36:08.820000", "MEAN_MOTION": 14.46496616, "ECCENTRICITY": 0.0013876, "INCLINATION": 74.0379, "RA_OF_ASC_NODE": 208.6985, "ARG_OF_PERICENTER": 302.6699, "MEAN_ANOMALY": 209.8307, "EPHEMERIS_TYPE": 0, "CLASSIFICATION_TYPE": "U", "NORAD_CAT_ID": 34563, "ELEMENT_SET_NO": 999, "REV_AT_EPOCH": 88158, "BSTAR": 0.00061397, "MEAN_MOTION_DOT": 2.186e-05, "MEAN_MOTION_DDOT": 0}, "tle": {"line1": "1 34563U 93036UZ  25344.06676875  .00002186  00000+0  61397-3 0  9990", "line2": "2 34563  74.0379 208.6985 0013876 302.6699 209.8307 14.46496616881587"}}, "geometry": {"type": "Point", "coordinates": [20.02609732413992, 25.644442039956257]}}, {"type": "Feature", "properties": {"norad_id": 34564, "name": "COSMOS 2251 DEB", "group": "cosmos-2251-debris", "lat": -19.973155369963862, "lon": -123.78394382315672, "alt_km": 747.6521213889146, "timestamp": "2025-12-10T11:33:53.778598+00:00", "meta": {"OBJECT_NAME": "COSMOS 2251 DEB", "OBJECT_ID": "1993-036VA", "EPOCH": "2025-12-10T04:02:00.639744", "MEAN_MOTION": 14.40682675, "ECCENTRICITY": 0.0018931, "INCLINATION": 74.0327, "RA_OF_ASC_NODE": 242.7693, "ARG_OF_PERICENTER": 347.1649, "MEAN_ANOMALY": 165.2593, "EPHEMERIS_TYPE": 0, "CLASSIFICATION_TYPE": "U", "NORAD_CAT_ID": 34564, "ELEMENT_SET_NO": 999, "REV_AT_EPOCH": 87969, "BSTAR": 0.00038173, "MEAN_MOTION_DOT": 1.195e-05, "MEAN_MOTION_DDOT": 0}, "tle": {"line1": "1 34564U 93036VA  25344.16806296  .00001195  00000+0  38173-3 0  9999", "line2": "2 34564  74.0327 242.7693 0018931 347.1649 165.2593 14.40682675879699"}}, "geometry": {"type": "Point", "coordinates": [-123.78394382315672, -19.973155369963862]}}, {"type": "Feature", "properties": {"norad_id": 34567, "name": "COSMOS 2251 DEB", "group": "cosmos-2251-debris", "lat": 19.169169979282106, "lon": -24.865212949150074, "alt_km": 797.9624678914024, "timestamp": "2025-12-10T11:33:53.778608+00:00", "meta": {"OBJECT_NAME": "COSMOS 2251 DEB", "OBJECT_ID": "1993-036VD", "EPOCH": "2025-12-09T05:01:15.178080", "MEAN_MOTION": 14.2401118, "ECCENTRICITY": 0.0074562, "INCLINATION": 74.0396, "RA_OF_ASC_NODE": 163.1343, "ARG_OF_PERICENTER": 238.1727, "MEAN_ANOMALY": 240.9079, "EPHEMERIS_TYPE": 0, "CLASSIFICATION_TYPE": "U", "NORAD_CAT_ID": 34567, "ELEMENT_SET_NO": 999, "REV_AT_EPOCH": 87074, "BSTAR": 0.00037325, "MEAN_MOTION_DOT": 8.56e-06, "MEAN_MOTION_DDOT": 0}, "tle": {"line1": "1 34567U 93036VD  25343.20920345  .00000856  00000+0  37325-3 0  9999", "line2": "2 34567  74.0396 163.1343 0074562 238.1727 240.9079 14.24011180870740"}}, "geometry": {"type": "Point", "coordinates": [-24.865212949150074, 19.169169979282106]}}, {"type": "Feature", "properties": {"norad_id": 34569, "name": "COSMOS 2251 DEB", "group": "cosmos-2251-debris", "lat": -38.887606034447245, "lon": -171.17002202443658, "alt_km": 778.5829477830293, "timestamp": "2025-12-10T11:33:53.778617+00:00", "meta": {"OBJECT_NAME": "COSMOS 2251 DEB", "OBJECT_ID": "1993-036VF", "EPOCH": "2025-12-09T22:32:51.153216", "MEAN_MOTION": 14.24741218, "ECCENTRICITY": 0.015719, "INCLINATION": 73.9904, "RA_OF_ASC_NODE": 203.1997, "ARG_OF_PERICENTER": 32.2311, "MEAN_ANOMALY": 27.9249, "EPHEMERIS_TYPE": 0, "CLASSIFICATION_TYPE": "U", "NORAD_CAT_ID": 34569, "ELEMENT_SET_NO": 999, "REV_AT_EPOCH": 86928, "BSTAR": 0.00077344, "MEAN_MOTION_DOT": 2.023e-05, "MEAN_MOTION_DDOT": 0}, "tle": {"line1": "1 34569U 93036VF  25343.93948094  .00002023  00000+0  77344-3 0  9995", "line2": "2 34569  73.9904 203.1997 0157190  32.2311  27.9249 14.24741218869287"}}, "geometry": {"type": "Point", "coordinates": [-171.17002202443658, -38.887606034447245]}}]}